[Satellite]
VERSION=1.1
NAME=FLOCK 2P-10
NICKNAME=FLOCK 2P-10
TLE1=1 41612U 16040P   18020.88146847  .00002757  00000-0  11721-3 0  9998
TLE2=2 41612  97.4359  87.0470 0011585  47.4186 312.8026 15.23832257 87802
